OBJECT_NAME,OBJECT_ID,EPOCH,MEAN_MOTION,ECCENTRICITY,INCLINATION,RA_OF_ASC_NODE,ARG_OF_PERICENTER,MEAN_ANOMALY,EPHEMERIS_TYPE,CLASSIFICATION_TYPE,NORAD_CAT_ID,ELEMENT_SET_NO,REV_AT_EPOCH,BSTAR,MEAN_MOTION_DOT,MEAN_MOTION_DDOT
STARLINK-36870,2026-035U,2026-06-17T08:27:02.869056,15.33429155,.0001751,97.2848,101.5855,81.4361,278.7080,0,U,67897,999,1926,.44994E-3,.14472E-3,0
STARLINK-36810,2026-035V,2026-06-17T08:42:42.763680,15.33447837,.0002525,97.2827,101.5694,81.5845,278.5684,0,U,67898,999,1926,.27171E-3,.8708E-4,0
STARLINK-36878,2026-035W,2026-06-17T09:37:31.380960,15.33472186,.0001063,97.2845,101.6676,72.6985,287.4374,0,U,67899,999,1927,.55656E-3,.17951E-3,0
STARLINK-36361,2026-035X,2026-06-17T08:07:28.382880,15.33444247,.0001727,97.2841,101.6018,97.7018,262.4421,0,U,67900,999,1926,.75076E-3,.2424E-3,0
STARLINK-36336,2026-035Y,2026-06-17T08:30:57.806208,15.33439856,.0001477,97.2847,101.5792,95.3593,264.7819,0,U,67901,999,1926,.32284E-3,.1036E-3,0
STARLINK-36876,2026-035Z,2026-06-17T08:15:17.642016,15.33457831,.0000437,97.2849,101.5960,202.9744,157.1479,0,U,67902,999,1926,.56695E-3,.1828E-3,0
STARLINK-36257,2026-035AA,2026-06-17T09:02:16.614816,15.33462339,.0000819,97.2877,101.5501,222.9913,137.1266,0,U,67903,999,1926,.79583E-3,.25719E-3,0
STARLINK-36814,2026-036A,2026-06-17T12:00:02.998944,15.27559534,.0001667,43.0037,42.0223,267.2445,37.4551,0,U,67904,999,567,.88051E-3,.24032E-3,0
STARLINK-36729,2026-036B,2026-06-16T03:13:32.152224,15.27613628,.0002569,43.0077,49.6846,265.4153,94.6406,0,U,67905,999,1877,.82662992E-3,.22579E-3,0
STARLINK-36763,2026-036C,2026-06-17T12:05:17.126880,15.27610193,.0002751,43.0062,41.8997,272.4726,87.5811,0,U,67906,999,1898,.5051E-3,.13676E-3,0
STARLINK-36742,2026-036D,2026-06-16T09:19:03.535104,15.27586118,.00031236,43.0077,48.1464,266.4298,93.6197,0,U,67907,999,1881,.74795538E-3,.20382E-3,0
STARLINK-36827,2026-036E,2026-06-16T09:13:29.446176,15.27599478,.00046671,43.0104,48.1103,266.6680,93.3638,0,U,67908,999,1881,.7674507E-3,.20933E-3,0
STARLINK-36822,2026-036F,2026-06-17T12:00:02.998944,15.27566780,.000166,43.0027,41.7632,261.7703,141.9990,0,U,67909,999,582,.96984E-3,.26511E-3,0
STARLINK-36847,2026-036G,2026-06-16T23:09:49.111200,15.27615789,.0000576,43.0099,44.7296,80.6426,279.4491,0,U,67910,999,1890,.77262E-3,.21082E-3,0
STARLINK-36736,2026-036H,2026-06-16T23:00:33.770016,15.27596497,.0001153,43.0022,44.6692,268.5186,91.5533,0,U,67911,999,1890,.50393E-3,.13637E-3,0
STARLINK-36676,2026-036J,2026-06-16T22:54:59.798592,15.27621117,.0000993,43.0068,44.6427,270.3482,89.7256,0,U,67912,999,1890,.7927E-3,.21642E-3,0
STARLINK-36690,2026-036K,2026-06-17T00:23:35.778048,15.27621615,.0001338,43.0021,44.2418,272.8576,87.2123,0,U,67913,999,1891,.86319E-3,.23597E-3,0
STARLINK-36724,2026-036L,2026-06-16T22:34:39.561888,15.27592279,.0001208,43.0020,44.5351,263.6291,96.4423,0,U,67914,999,1890,.5135E-3,.139E-3,0
STARLINK-36723,2026-036M,2026-06-16T22:43:54.653376,15.27604671,.0000371,43.0098,44.5797,187.9198,172.1648,0,U,67915,999,1890,.5776E-3,.15678E-3,0
STARLINK-36721,2026-036N,2026-06-15T22:56:45.642048,15.27589907,.0000274,43.0035,50.0426,197.8596,162.2246,0,U,67916,999,1875,.52812E-3,.14303E-3,0
STARLINK-36722,2026-036P,2026-06-16T22:23:33.929376,15.27635123,.0002098,43.0050,44.4699,275.1326,84.9286,0,U,67917,999,1890,.12305E-2,.33813E-3,0
STARLINK-36341,2026-036Q,2026-06-16T22:08:58.420032,15.27607071,.0001573,43.0002,45.2847,265.8778,94.1894,0,U,67918,999,1889,.64264E-3,.17478E-3,0
STARLINK-36663,2026-036R,2026-06-16T22:18:00.326016,15.27591060,.000431,43.0005,44.4410,277.1916,82.8446,0,U,67919,999,1890,.53197E-3,.14412E-3,0
STARLINK-36375,2026-036S,2026-06-16T09:26:27.784896,15.27600478,.00027839,43.0026,48.1778,267.2560,92.7973,0,U,67920,999,1881,.54540519E-3,.14786E-3,0
STARLINK-36405,2026-036T,2026-06-16T09:20:54.972960,15.27591361,.00014615,43.0064,48.1610,272.2628,87.8056,0,U,67921,999,1881,.78546864E-3,.21422E-3,0
STARLINK-36406,2026-036V,2026-06-16T09:09:48.589632,15.27587469,.00028387,43.0066,48.1070,264.5852,95.4675,0,U,67923,999,1881,.72622893E-3,.19781E-3,0
STARLINK-36714,2026-036W,2026-06-17T12:00:02.998944,15.27566376,.0001516,43.0031,41.7183,261.4773,156.4546,0,U,67924,999,580,.95196E-3,.26015E-3,0
STARLINK-36726,2026-036X,2026-06-16T23:02:24.164160,15.27617617,.000143,43.0023,44.6952,274.1327,85.9361,0,U,67925,999,1890,.84421E-3,.23068E-3,0
STARLINK-36758,2026-036Y,2026-06-17T03:39:20.263968,15.27588706,.0001245,43.0023,43.5483,265.8380,94.2329,0,U,67926,999,1893,.56624E-3,.15356E-3,0
STARLINK-36728,2026-036Z,2026-06-16T22:45:45.540864,15.27596863,.0000868,43.0098,44.5885,262.3665,97.7088,0,U,67927,999,1890,.73517E-3,.20033E-3,0
