STARLINK-36870          
1 67897U 26035U   26168.35211654  .00014472  00000+0  44994-3 0  9993
2 67897  97.2848 101.5855 0001751  81.4361 278.7080 15.33429155 19267
STARLINK-36810          
1 67898U 26035V   26168.36299495  .00008708  00000+0  27171-3 0  9997
2 67898  97.2827 101.5694 0002525  81.5845 278.5684 15.33447837 19269
STARLINK-36878          
1 67899U 26035W   26168.40105765  .00017951  00000+0  55656-3 0  9998
2 67899  97.2845 101.6676 0001063  72.6985 287.4374 15.33472186 19274
STARLINK-36361          
1 67900U 26035X   26168.33852295  .00024240  00000+0  75076-3 0  9997
2 67900  97.2841 101.6018 0001727  97.7018 262.4421 15.33444247 19267
STARLINK-36336          
1 67901U 26035Y   26168.35483572  .00010360  00000+0  32284-3 0  9990
2 67901  97.2847 101.5792 0001477  95.3593 264.7819 15.33439856 19262
STARLINK-36876          
1 67902U 26035Z   26168.34395419  .00018280  00000+0  56695-3 0  9993
2 67902  97.2849 101.5960 0000437 202.9744 157.1479 15.33457831 19261
STARLINK-36257          
1 67903U 26035AA  26168.37658119  .00025719  00000+0  79583-3 0  9992
2 67903  97.2877 101.5501 0000819 222.9913 137.1266 15.33462339 19269
STARLINK-36814          
1 67904U 26036A   26168.50003471  .00024032  00000+0  88051-3 0  9991
2 67904  43.0037  42.0223 0001667 267.2445  37.4551 15.27559534  5677
STARLINK-36729          
1 67905U 26036B   26167.13439991  .00022579  00000+0  82663-3 0  9997
2 67905  43.0077  49.6846 0002569 265.4153  94.6406 15.27613628 18778
STARLINK-36763          
1 67906U 26036C   26168.50367045  .00013676  00000+0  50510-3 0  9994
2 67906  43.0062  41.8997 0002751 272.4726  87.5811 15.27610193 18989
STARLINK-36742          
1 67907U 26036D   26167.38823536  .00020382  00000+0  74796-3 0  9996
2 67907  43.0077  48.1464 0003123 266.4298  93.6197 15.27586118 18812
STARLINK-36827          
1 67908U 26036E   26167.38436859  .00020933  00000+0  76745-3 0  9993
2 67908  43.0104  48.1103 0004667 266.6680  93.3638 15.27599478 18815
STARLINK-36822          
1 67909U 26036F   26168.50003471  .00026511  00000+0  96984-3 0  9994
2 67909  43.0027  41.7632 0001660 261.7703 141.9990 15.27566780  5826
STARLINK-36847          
1 67910U 26036G   26167.96515175  .00021082  00000+0  77262-3 0  9990
2 67910  43.0099  44.7296 0000576  80.6426 279.4491 15.27615789 18901
STARLINK-36736          
1 67911U 26036H   26167.95872419  .00013637  00000+0  50393-3 0  9990
2 67911  43.0022  44.6692 0001153 268.5186  91.5533 15.27596497 18903
STARLINK-36676          
1 67912U 26036J   26167.95485878  .00021642  00000+0  79270-3 0  9990
2 67912  43.0068  44.6427 0000993 270.3482  89.7256 15.27621117 18900
STARLINK-36690          
1 67913U 26036K   26168.01638632  .00023597  00000+0  86319-3 0  9990
2 67913  43.0021  44.2418 0001338 272.8576  87.2123 15.27621615 18911
STARLINK-36724          
1 67914U 26036L   26167.94073567  .00013900  00000+0  51350-3 0  9996
2 67914  43.0020  44.5351 0001208 263.6291  96.4423 15.27592279 18905
STARLINK-36723          
1 67915U 26036M   26167.94716034  .00015678  00000+0  57760-3 0  9995
2 67915  43.0098  44.5797 0000371 187.9198 172.1648 15.27604671 18900
STARLINK-36721          
1 67916U 26036N   26166.95608382  .00014303  00000+0  52812-3 0  9999
2 67916  43.0035  50.0426 0000274 197.8596 162.2246 15.27589907 18758
STARLINK-36722          
1 67917U 26036P   26167.93303159  .00033813  00000+0  12305-2 0  9992
2 67917  43.0050  44.4699 0002098 275.1326  84.9286 15.27635123 18905
STARLINK-36341          
1 67918U 26036Q   26167.92289838  .00017478  00000+0  64264-3 0  9990
2 67918  43.0002  45.2847 0001573 265.8778  94.1894 15.27607071 18898
STARLINK-36663          
1 67919U 26036R   26167.92917044  .00014412  00000+0  53197-3 0  9996
2 67919  43.0005  44.4410 0004310 277.1916  82.8446 15.27591060 18900
STARLINK-36375          
1 67920U 26036S   26167.39337714  .00014786  00000+0  54541-3 0  9997
2 67920  43.0026  48.1778 0002783 267.2560  92.7973 15.27600478 18819
STARLINK-36405          
1 67921U 26036T   26167.38952515  .00021422  00000+0  78547-3 0  9996
2 67921  43.0064  48.1610 0001461 272.2628  87.8056 15.27591361 18817
STARLINK-36406          
1 67923U 26036V   26167.38181238  .00019781  00000+0  72623-3 0  9998
2 67923  43.0066  48.1070 0002838 264.5852  95.4675 15.27587469 18819
STARLINK-36714          
1 67924U 26036W   26168.50003471  .00026015  00000+0  95196-3 0  9994
2 67924  43.0031  41.7183 0001516 261.4773 156.4546 15.27566376  5800
STARLINK-36726          
1 67925U 26036X   26167.96000190  .00023068  00000+0  84421-3 0  9993
2 67925  43.0023  44.6952 0001430 274.1327  85.9361 15.27617617 18900
STARLINK-36758          
1 67926U 26036Y   26168.15231787  .00015356  00000+0  56624-3 0  9999
2 67926  43.0023  43.5483 0001245 265.8380  94.2329 15.27588706 18934
STARLINK-36728          
1 67927U 26036Z   26167.94844376  .00020033  00000+0  73517-3 0  9998
2 67927  43.0098  44.5885 0000868 262.3665  97.7088 15.27596863 18902
